start=new Date('2022-04-30T00:00:00.000Z').valueOf();
sats=[{"FILE":"3421985","MEAN_MOTION_DDOT":"0.0000000000000","TLE_LINE2":"2 47354  53.0524 236.3208 0001518  60.6454 299.4686 15.06403218 71011","SITE":"AFETR","PERIOD":"95.592","COUNTRY_CODE":"US","OBJECT_ID":"2021-005F","EPOCH":"2022-04-29T16:43:21.039456","BSTAR":"-0.00023447000000","REF_FRAME":"TEME","ECCENTRICITY":"0.00015180","APOAPSIS":"548.255","RCS_SIZE":"LARGE","CENTER_NAME":"EARTH","MEAN_MOTION_DOT":"-0.00003772","TLE_LINE1":"1 47354U 21005F   22119.69677129 -.00003772  00000-0 -23447-3 0  9997","MEAN_MOTION":"15.06403218","INCLINATION":"53.0524","DECAY_DATE":null,"NORAD_CAT_ID":"47354","RA_OF_ASC_NODE":"236.3208","OBJECT_TYPE":"PAYLOAD","ELEMENT_SET_NO":"999","MEAN_ANOMALY":"299.4686","TIME_SYSTEM":"UTC","EPHEMERIS_TYPE":"0","REV_AT_EPOCH":"7101","PERIAPSIS":"546.152","ARG_OF_PERICENTER":"60.6454","GP_ID":"202309900","SEMIMAJOR_AXIS":"6925.339","CLASSIFICATION_TYPE":"U","MEAN_ELEMENT_THEORY":"SGP4","OBJECT_NAME":"STARLINK-2046","LAUNCH_DATE":"2021-01-20"},{"FILE":"3421985","MEAN_MOTION_DDOT":"0.0000000000000","PERIOD":"95.592","SITE":"AFETR","TLE_LINE2":"2 47355  53.0480 221.5391 0001527  60.6659 299.4482 15.06398695 71217","OBJECT_ID":"2021-005G","COUNTRY_CODE":"US","EPOCH":"2022-04-29T15:39:00.315936","BSTAR":"-0.00013392000000","ECCENTRICITY":"0.00015270","REF_FRAME":"TEME","APOAPSIS":"548.275","CENTER_NAME":"EARTH","RCS_SIZE":"LARGE","TLE_LINE1":"1 47355U 21005G   22119.65208699 -.00002276  00000-0 -13392-3 0  9992","MEAN_MOTION_DOT":"-0.00002276","MEAN_MOTION":"15.06398695","INCLINATION":"53.0480","NORAD_CAT_ID":"47355","DECAY_DATE":null,"OBJECT_TYPE":"PAYLOAD","RA_OF_ASC_NODE":"221.5391","ELEMENT_SET_NO":"999","MEAN_ANOMALY":"299.4482","EPHEMERIS_TYPE":"0","TIME_SYSTEM":"UTC","REV_AT_EPOCH":"7121","PERIAPSIS":"546.160","ARG_OF_PERICENTER":"60.6659","SEMIMAJOR_AXIS":"6925.353","GP_ID":"202310651","CLASSIFICATION_TYPE":"U","OBJECT_NAME":"STARLINK-2047","LAUNCH_DATE":"2021-01-20","MEAN_ELEMENT_THEORY":"SGP4"},{"LAUNCH_DATE":"2021-01-20","OBJECT_NAME":"STARLINK-2049","MEAN_ELEMENT_THEORY":"SGP4","CLASSIFICATION_TYPE":"U","ARG_OF_PERICENTER":"56.3676","PERIAPSIS":"546.164","SEMIMAJOR_AXIS":"6925.352","GP_ID":"202310408","MEAN_ANOMALY":"303.7458","ELEMENT_SET_NO":"999","REV_AT_EPOCH":"7096","EPHEMERIS_TYPE":"0","TIME_SYSTEM":"UTC","RA_OF_ASC_NODE":"240.7301","OBJECT_TYPE":"PAYLOAD","INCLINATION":"53.0530","MEAN_MOTION":"15.06398944","DECAY_DATE":null,"NORAD_CAT_ID":"47356","CENTER_NAME":"EARTH","RCS_SIZE":"LARGE","APOAPSIS":"548.269","TLE_LINE1":"1 47356U 21005H   22119.83084947 -.00004814  00000-0 -30452-3 0  9997","MEAN_MOTION_DOT":"-0.00004814","OBJECT_ID":"2021-005H","COUNTRY_CODE":"US","ECCENTRICITY":"0.00015200","REF_FRAME":"TEME","EPOCH":"2022-04-29T19:56:25.394208","BSTAR":"-0.00030452000000","FILE":"3421985","PERIOD":"95.592","SITE":"AFETR","TLE_LINE2":"2 47356  53.0530 240.7301 0001520  56.3676 303.7458 15.06398944 70962","MEAN_MOTION_DDOT":"0.0000000000000"},{"MEAN_MOTION_DOT":"-0.00001270","TLE_LINE1":"1 47357U 21005J   22119.83915147 -.00001270  00000-0 -66352-4 0  9995","APOAPSIS":"548.357","RCS_SIZE":"LARGE","CENTER_NAME":"EARTH","DECAY_DATE":null,"NORAD_CAT_ID":"47357","MEAN_MOTION":"15.06398475","INCLINATION":"53.0555","MEAN_MOTION_DDOT":"0.0000000000000","SITE":"AFETR","TLE_LINE2":"2 47357  53.0555 270.6757 0001644  68.3579 291.7585 15.06398475 70549","PERIOD":"95.592","FILE":"3421985","EPOCH":"2022-04-29T20:08:22.687008","BSTAR":"-0.00006635200000","REF_FRAME":"TEME","ECCENTRICITY":"0.00016440","COUNTRY_CODE":"US","OBJECT_ID":"2021-005J","GP_ID":"202309157","SEMIMAJOR_AXIS":"6925.353","PERIAPSIS":"546.080","ARG_OF_PERICENTER":"68.3579","CLASSIFICATION_TYPE":"U","MEAN_ELEMENT_THEORY":"SGP4","LAUNCH_DATE":"2021-01-20","OBJECT_NAME":"STARLINK-2050","OBJECT_TYPE":"PAYLOAD","RA_OF_ASC_NODE":"270.6757","EPHEMERIS_TYPE":"0","TIME_SYSTEM":"UTC","REV_AT_EPOCH":"7054","ELEMENT_SET_NO":"999","MEAN_ANOMALY":"291.7585"},{"ECCENTRICITY":"0.00015970","REF_FRAME":"TEME","EPOCH":"2022-04-29T17:01:17.014080","BSTAR":"0.00013139000000","OBJECT_ID":"2021-005K","COUNTRY_CODE":"US","PERIOD":"95.592","TLE_LINE2":"2 47358  53.0550 241.2728 0001597  61.3599 298.7550 15.06400483 70945","SITE":"AFETR","MEAN_MOTION_DDOT":"0.0000000000000","FILE":"3421985","DECAY_DATE":null,"NORAD_CAT_ID":"47358","INCLINATION":"53.0550","MEAN_MOTION":"15.06400483","TLE_LINE1":"1 47358U 21005K   22119.70922470  .00001676  00000-0  13139-3 0  9991","MEAN_MOTION_DOT":"0.00001676","CENTER_NAME":"EARTH","RCS_SIZE":"LARGE","APOAPSIS":"548.318","REV_AT_EPOCH":"7094","TIME_SYSTEM":"UTC","EPHEMERIS_TYPE":"0","MEAN_ANOMALY":"298.7550","ELEMENT_SET_NO":"999","OBJECT_TYPE":"PAYLOAD","RA_OF_ASC_NODE":"241.2728","OBJECT_NAME":"STARLINK-2055","LAUNCH_DATE":"2021-01-20","MEAN_ELEMENT_THEORY":"SGP4","CLASSIFICATION_TYPE":"U","GP_ID":"202309407","SEMIMAJOR_AXIS":"6925.347","ARG_OF_PERICENTER":"61.3599","PERIAPSIS":"546.106"},{"DECAY_DATE":null,"NORAD_CAT_ID":"47359","INCLINATION":"53.0543","MEAN_MOTION":"15.06404032","TLE_LINE1":"1 47359U 21005L   22119.78615544 -.00000067  00000-0  14415-4 0  9994","MEAN_MOTION_DOT":"-0.00000067","CENTER_NAME":"EARTH","RCS_SIZE":"LARGE","APOAPSIS":"548.276","ECCENTRICITY":"0.00015520","REF_FRAME":"TEME","EPOCH":"2022-04-29T18:52:03.830016","BSTAR":"0.00001441500000","OBJECT_ID":"2021-005L","COUNTRY_CODE":"US","PERIOD":"95.592","TLE_LINE2":"2 47359  53.0543 265.9155 0001552  71.2880 288.8277 15.06404032 70602","SITE":"AFETR","MEAN_MOTION_DDOT":"0.0000000000000","FILE":"3421985","OBJECT_NAME":"STARLINK-2069","LAUNCH_DATE":"2021-01-20","MEAN_ELEMENT_THEORY":"SGP4","CLASSIFICATION_TYPE":"U","SEMIMAJOR_AXIS":"6925.336","GP_ID":"202310158","ARG_OF_PERICENTER":"71.2880","PERIAPSIS":"546.126","REV_AT_EPOCH":"7060","EPHEMERIS_TYPE":"0","TIME_SYSTEM":"UTC","MEAN_ANOMALY":"288.8277","ELEMENT_SET_NO":"999","RA_OF_ASC_NODE":"265.9155","OBJECT_TYPE":"PAYLOAD"},{"OBJECT_TYPE":"PAYLOAD","RA_OF_ASC_NODE":"236.2006","TIME_SYSTEM":"UTC","EPHEMERIS_TYPE":"0","REV_AT_EPOCH":"7102","ELEMENT_SET_NO":"999","MEAN_ANOMALY":"306.9721","SEMIMAJOR_AXIS":"6925.340","GP_ID":"202310902","PERIAPSIS":"545.973","ARG_OF_PERICENTER":"53.1431","CLASSIFICATION_TYPE":"U","OBJECT_NAME":"STARLINK-2070","LAUNCH_DATE":"2021-01-20","MEAN_ELEMENT_THEORY":"SGP4","MEAN_MOTION_DDOT":"0.0000000000000","PERIOD":"95.592","SITE":"AFETR","TLE_LINE2":"2 47360  53.0539 236.2006 0001778  53.1431 306.9721 15.06402943 71028","FILE":"3421985","EPOCH":"2022-04-29T17:25:48.837216","BSTAR":"-0.00016058000000","ECCENTRICITY":"0.00017780","REF_FRAME":"TEME","OBJECT_ID":"2021-005M","COUNTRY_CODE":"US","TLE_LINE1":"1 47360U 21005M   22119.72625969 -.00002673  00000-0 -16058-3 0  9992","MEAN_MOTION_DOT":"-0.00002673","APOAPSIS":"548.436","CENTER_NAME":"EARTH","RCS_SIZE":"LARGE","DECAY_DATE":null,"NORAD_CAT_ID":"47360","MEAN_MOTION":"15.06402943","INCLINATION":"53.0539"},{"OBJECT_TYPE":"PAYLOAD","RA_OF_ASC_NODE":"241.2352","REV_AT_EPOCH":"7094","TIME_SYSTEM":"UTC","EPHEMERIS_TYPE":"0","MEAN_ANOMALY":"297.6775","ELEMENT_SET_NO":"999","SEMIMAJOR_AXIS":"6925.378","GP_ID":"202309651","ARG_OF_PERICENTER":"62.4370","PERIAPSIS":"546.174","MEAN_ELEMENT_THEORY":"SGP4","OBJECT_NAME":"STARLINK-2071","LAUNCH_DATE":"2021-01-20","CLASSIFICATION_TYPE":"U","TLE_LINE2":"2 47361  53.0548 241.2352 0001544  62.4370 297.6775 15.06390303 70946","SITE":"AFETR","PERIOD":"95.593","MEAN_MOTION_DDOT":"0.0000000000000","FILE":"3421985","REF_FRAME":"TEME","ECCENTRICITY":"0.00015440","EPOCH":"2022-04-29T17:11:53.445984","BSTAR":"-0.00013773000000","COUNTRY_CODE":"US","OBJECT_ID":"2021-005N","MEAN_MOTION_DOT":"-0.00002332","TLE_LINE1":"1 47361U 21005N   22119.71659081 -.00002332  00000-0 -13773-3 0  9997","RCS_SIZE":"LARGE","CENTER_NAME":"EARTH","APOAPSIS":"548.313","DECAY_DATE":null,"NORAD_CAT_ID":"47361","INCLINATION":"53.0548","MEAN_MOTION":"15.06390303"},{"RA_OF_ASC_NODE":"270.7333","OBJECT_TYPE":"PAYLOAD","MEAN_ANOMALY":"291.6513","ELEMENT_SET_NO":"999","REV_AT_EPOCH":"7054","EPHEMERIS_TYPE":"0","TIME_SYSTEM":"UTC","ARG_OF_PERICENTER":"68.4655","PERIAPSIS":"546.056","SEMIMAJOR_AXIS":"6925.360","GP_ID":"202309901","LAUNCH_DATE":"2021-01-20","OBJECT_NAME":"STARLINK-2076","MEAN_ELEMENT_THEORY":"SGP4","CLASSIFICATION_TYPE":"U","FILE":"3421985","PERIOD":"95.592","TLE_LINE2":"2 47362  53.0543 270.7333 0001689  68.4655 291.6513 15.06396160 70547","SITE":"AFETR","MEAN_MOTION_DDOT":"0.0000000000000","OBJECT_ID":"2021-005P","COUNTRY_CODE":"US","ECCENTRICITY":"0.00016890","REF_FRAME":"TEME","EPOCH":"2022-04-29T19:52:27.242976","BSTAR":"-0.00017040000000","CENTER_NAME":"EARTH","RCS_SIZE":"LARGE","APOAPSIS":"548.395","TLE_LINE1":"1 47362U 21005P   22119.82809309 -.00002818  00000-0 -17040-3 0  9990","MEAN_MOTION_DOT":"-0.00002818","INCLINATION":"53.0543","MEAN_MOTION":"15.06396160","DECAY_DATE":null,"NORAD_CAT_ID":"47362"},{"REV_AT_EPOCH":"7054","EPHEMERIS_TYPE":"0","TIME_SYSTEM":"UTC","MEAN_ANOMALY":"282.1455","ELEMENT_SET_NO":"999","RA_OF_ASC_NODE":"270.7044","OBJECT_TYPE":"PAYLOAD","MEAN_ELEMENT_THEORY":"SGP4","LAUNCH_DATE":"2021-01-20","OBJECT_NAME":"STARLINK-2077","CLASSIFICATION_TYPE":"U","GP_ID":"202310652","SEMIMAJOR_AXIS":"6925.372","ARG_OF_PERICENTER":"77.9701","PERIAPSIS":"546.208","REF_FRAME":"TEME","ECCENTRICITY":"0.00014850","BSTAR":"-0.00002645600000","EPOCH":"2022-04-29T19:57:45.524160","COUNTRY_CODE":"US","OBJECT_ID":"2021-005Q","TLE_LINE2":"2 47363  53.0546 270.7044 0001485  77.9701 282.1455 15.06392410 70545","SITE":"AFETR","PERIOD":"95.593","MEAN_MOTION_DDOT":"0.0000000000000","FILE":"3421985","NORAD_CAT_ID":"47363","DECAY_DATE":null,"INCLINATION":"53.0546","MEAN_MOTION":"15.06392410","MEAN_MOTION_DOT":"-0.00000675","TLE_LINE1":"1 47363U 21005Q   22119.83177690 -.00000675  00000-0 -26456-4 0  9994","CENTER_NAME":"EARTH","RCS_SIZE":"LARGE","APOAPSIS":"548.265"}];
